OBJECT_NAME,OBJECT_ID,EPOCH,MEAN_MOTION,ECCENTRICITY,INCLINATION,RA_OF_ASC_NODE,ARG_OF_PERICENTER,MEAN_ANOMALY,EPHEMERIS_TYPE,CLASSIFICATION_TYPE,NORAD_CAT_ID,ELEMENT_SET_NO,REV_AT_EPOCH,BSTAR,MEAN_MOTION_DOT,MEAN_MOTION_DDOT
GEOSCAN 3 (RS92S3),2025-155T,2026-07-07T12:31:48.088704,15.36119900,.0008569,97.4547,158.6461,106.9791,253.2393,0,U,64893,999,8397,.37939E-3,.1329E-3,0
INNOSAT 3 (RS92S0),2025-155U,2026-07-07T12:37:02.171712,15.45388138,.000831,97.4493,160.5304,107.2383,252.9776,0,U,64894,999,8410,.61906E-3,.29591E-3,0
KNACKSAT-2,1998-067XZ,2026-07-06T10:19:34.257504,15.61755488,.00082597,51.6265,197.5608,296.8985,63.1164,0,U,67683,999,2328,.57854596E-3,.50889E-3,0
