GEOSCAN 3 (RS92S3)      
1 64893U 25155T   26188.52208436  .00013290  00000+0  37939-3 0  9991
2 64893  97.4547 158.6461 0008569 106.9791 253.2393 15.36119900 83979
INNOSAT 3 (RS92S0)      
1 64894U 25155U   26188.52571958  .00029591  00000+0  61906-3 0  9996
2 64894  97.4493 160.5304 0008310 107.2383 252.9776 15.45388138 84101
KNACKSAT-2              
1 67683U 98067XZ  26187.43025761  .00050889  00000+0  57855-3 0  9994
2 67683  51.6265 197.5608 0008259 296.8985  63.1164 15.61755488 23280
